STARLINK-30334          
1 57719U 23129X   25322.52448349 -.00000497  00000+0 -21716-4 0  9991
2 57719  43.0048   4.2158 0001236 269.6066  90.4634 15.02531243123791
STARLINK-30375          
1 57732U 23131A   25322.95582773  .00000596  00000+0  59187-4 0  9997
2 57732  43.0065  40.9925 0001762 251.7115 108.3535 15.02535968123422
STARLINK-30310          
1 57733U 23131B   25322.63746366 -.00001263  00000+0 -78403-4 0  9999
2 57733  43.0039  54.8194 0001668 270.4442  89.6209 15.02536474123233
STARLINK-30365          
1 57734U 23131C   25322.93999536 -.00002543  00000+0 -17334-3 0  9999
2 57734  43.0056  53.6166 0001156 274.1814  85.8896 15.02518260123261
STARLINK-30371          
1 57735U 23131D   25322.98316900 -.00000132  00000+0  52717-5 0  9990
2 57735  43.0051  53.1139 0001502 269.9245  90.1425 15.02540358123278
STARLINK-30352          
1 57736U 23131E   25322.97318101  .00000434  00000+0  47189-4 0  9995
2 57736  43.0032  53.0363 0001114 276.4312  83.6403 15.02534592123279
STARLINK-30344          
1 57737U 23131F   25322.59651070 -.00001916  00000+0 -12673-3 0  9996
2 57737  43.0061  55.3779 0001955 258.0259 102.0364 15.02540456123219
STARLINK-30351          
1 57738U 23131G   25322.94999454 -.00000870  00000+0 -49360-4 0  9999
2 57738  43.0040  53.7300 0001468 257.5529 102.5149 15.02535219123264
STARLINK-30242          
1 57739U 23131H   25322.89736441 -.00001421  00000+0 -90099-4 0  9997
2 57739  43.0025  28.4443 0000709 260.5575  99.5187 15.02564879123550
STARLINK-30331          
1 57740U 23131J   25322.85298096 -.00002976  00000+0 -98668-4 0  9990
2 57740  43.0059   5.3525 0000800 252.7233 107.3531 15.27578294123824
STARLINK-30364          
1 57741U 23131K   25322.66743434 -.00001156  00000+0 -70553-4 0  9993
2 57741  43.0062  55.0453 0001173 273.7759  86.2949 15.02531410123225
STARLINK-30308          
1 57742U 23131L   25322.68075024  .00000170  00000+0  27640-4 0  9991
2 57742  43.0076  55.1443 0001739 264.8544  95.2100 15.02533291123231
STARLINK-30361          
1 57743U 23131M   25322.59762843 -.00001418  00000+0 -89913-4 0  9993
2 57743  43.0024  55.3803 0001509 271.4161  88.6508 15.02528664123215
STARLINK-30363          
1 57744U 23131N   25322.55364597  .00000864  00000+0  79046-4 0  9992
2 57744  43.0059  43.1369 0001215 283.1259  76.9448 15.02529558123359
STARLINK-30362          
1 57745U 23131P   25322.66077076 -.00000155  00000+0  36340-5 0  9993
2 57745  43.0016  54.9973 0001645 263.3139  96.7516 15.02531297123223
STARLINK-30350          
1 57746U 23131Q   25322.95664660 -.00000226  00000+0 -16261-5 0  9997
2 57746  43.0041  53.7574 0001830 292.8635  67.2014 15.02534529123261
