[{"OBJECT_NAME":"STARLINK-30334","OBJECT_ID":"2023-129X","EPOCH":"2025-11-18T12:35:15.373536","MEAN_MOTION":15.02531243,"ECCENTRICITY":0.00012366,"INCLINATION":43.0048,"RA_OF_ASC_NODE":4.2158,"ARG_OF_PERICENTER":269.6066,"MEAN_ANOMALY":90.4634,"EPHEMERIS_TYPE":0,"CLASSIFICATION_TYPE":"U","NORAD_CAT_ID":57719,"ELEMENT_SET_NO":999,"REV_AT_EPOCH":12379,"BSTAR":-2.1715696e-5,"MEAN_MOTION_DOT":-4.97e-6,"MEAN_MOTION_DDOT":0},{"OBJECT_NAME":"STARLINK-30375","OBJECT_ID":"2023-131A","EPOCH":"2025-11-18T22:56:23.515872","MEAN_MOTION":15.02535968,"ECCENTRICITY":0.00017624,"INCLINATION":43.0065,"RA_OF_ASC_NODE":40.9925,"ARG_OF_PERICENTER":251.7115,"MEAN_ANOMALY":108.3535,"EPHEMERIS_TYPE":0,"CLASSIFICATION_TYPE":"U","NORAD_CAT_ID":57732,"ELEMENT_SET_NO":999,"REV_AT_EPOCH":12342,"BSTAR":5.918682e-5,"MEAN_MOTION_DOT":5.96e-6,"MEAN_MOTION_DDOT":0},{"OBJECT_NAME":"STARLINK-30310","OBJECT_ID":"2023-131B","EPOCH":"2025-11-18T15:17:56.860224","MEAN_MOTION":15.02536474,"ECCENTRICITY":0.00016684,"INCLINATION":43.0039,"RA_OF_ASC_NODE":54.8194,"ARG_OF_PERICENTER":270.4442,"MEAN_ANOMALY":89.6209,"EPHEMERIS_TYPE":0,"CLASSIFICATION_TYPE":"U","NORAD_CAT_ID":57733,"ELEMENT_SET_NO":999,"REV_AT_EPOCH":12323,"BSTAR":-7.8402974e-5,"MEAN_MOTION_DOT":-1.263e-5,"MEAN_MOTION_DDOT":0},{"OBJECT_NAME":"STARLINK-30365","OBJECT_ID":"2023-131C","EPOCH":"2025-11-18T22:33:35.599104","MEAN_MOTION":15.0251826,"ECCENTRICITY":0.00011564,"INCLINATION":43.0056,"RA_OF_ASC_NODE":53.6166,"ARG_OF_PERICENTER":274.1814,"MEAN_ANOMALY":85.8896,"EPHEMERIS_TYPE":0,"CLASSIFICATION_TYPE":"U","NORAD_CAT_ID":57734,"ELEMENT_SET_NO":999,"REV_AT_EPOCH":12326,"BSTAR":-0.00017334336,"MEAN_MOTION_DOT":-2.543e-5,"MEAN_MOTION_DDOT":0},{"OBJECT_NAME":"STARLINK-30371","OBJECT_ID":"2023-131D","EPOCH":"2025-11-18T23:35:45.801600","MEAN_MOTION":15.02540358,"ECCENTRICITY":0.00015028,"INCLINATION":43.0051,"RA_OF_ASC_NODE":53.1139,"ARG_OF_PERICENTER":269.9245,"MEAN_ANOMALY":90.1425,"EPHEMERIS_TYPE":0,"CLASSIFICATION_TYPE":"U","NORAD_CAT_ID":57735,"ELEMENT_SET_NO":999,"REV_AT_EPOCH":12327,"BSTAR":5.271669e-6,"MEAN_MOTION_DOT":-1.32e-6,"MEAN_MOTION_DDOT":0},{"OBJECT_NAME":"STARLINK-30352","OBJECT_ID":"2023-131E","EPOCH":"2025-11-18T23:21:22.839264","MEAN_MOTION":15.02534592,"ECCENTRICITY":0.00011149,"INCLINATION":43.0032,"RA_OF_ASC_NODE":53.0363,"ARG_OF_PERICENTER":276.4312,"MEAN_ANOMALY":83.6403,"EPHEMERIS_TYPE":0,"CLASSIFICATION_TYPE":"U","NORAD_CAT_ID":57736,"ELEMENT_SET_NO":999,"REV_AT_EPOCH":12327,"BSTAR":4.7188728e-5,"MEAN_MOTION_DOT":4.34e-6,"MEAN_MOTION_DDOT":0},{"OBJECT_NAME":"STARLINK-30344","OBJECT_ID":"2023-131F","EPOCH":"2025-11-18T14:18:58.524480","MEAN_MOTION":15.02540456,"ECCENTRICITY":0.00019559,"INCLINATION":43.0061,"RA_OF_ASC_NODE":55.3779,"ARG_OF_PERICENTER":258.0259,"MEAN_ANOMALY":102.0364,"EPHEMERIS_TYPE":0,"CLASSIFICATION_TYPE":"U","NORAD_CAT_ID":57737,"ELEMENT_SET_NO":999,"REV_AT_EPOCH":12321,"BSTAR":-0.00012673353,"MEAN_MOTION_DOT":-1.916e-5,"MEAN_MOTION_DDOT":0},{"OBJECT_NAME":"STARLINK-30351","OBJECT_ID":"2023-131G","EPOCH":"2025-11-18T22:47:59.528256","MEAN_MOTION":15.02535219,"ECCENTRICITY":0.0001468,"INCLINATION":43.004,"RA_OF_ASC_NODE":53.73,"ARG_OF_PERICENTER":257.5529,"MEAN_ANOMALY":102.5149,"EPHEMERIS_TYPE":0,"CLASSIFICATION_TYPE":"U","NORAD_CAT_ID":57738,"ELEMENT_SET_NO":999,"REV_AT_EPOCH":12326,"BSTAR":-4.9360306e-5,"MEAN_MOTION_DOT":-8.7e-6,"MEAN_MOTION_DDOT":0},{"OBJECT_NAME":"STARLINK-30242","OBJECT_ID":"2023-131H","EPOCH":"2025-11-18T21:32:12.285024","MEAN_MOTION":15.02564879,"ECCENTRICITY":7.093e-5,"INCLINATION":43.0025,"RA_OF_ASC_NODE":28.4443,"ARG_OF_PERICENTER":260.5575,"MEAN_ANOMALY":99.5187,"EPHEMERIS_TYPE":0,"CLASSIFICATION_TYPE":"U","NORAD_CAT_ID":57739,"ELEMENT_SET_NO":999,"REV_AT_EPOCH":12355,"BSTAR":-9.0099141e-5,"MEAN_MOTION_DOT":-1.421e-5,"MEAN_MOTION_DDOT":0},{"OBJECT_NAME":"STARLINK-30331","OBJECT_ID":"2023-131J","EPOCH":"2025-11-18T20:28:17.554944","MEAN_MOTION":15.27578294,"ECCENTRICITY":8.001e-5,"INCLINATION":43.0059,"RA_OF_ASC_NODE":5.3525,"ARG_OF_PERICENTER":252.7233,"MEAN_ANOMALY":107.3531,"EPHEMERIS_TYPE":0,"CLASSIFICATION_TYPE":"U","NORAD_CAT_ID":57740,"ELEMENT_SET_NO":999,"REV_AT_EPOCH":12382,"BSTAR":-9.8668397e-5,"MEAN_MOTION_DOT":-2.976e-5,"MEAN_MOTION_DDOT":0},{"OBJECT_NAME":"STARLINK-30364","OBJECT_ID":"2023-131K","EPOCH":"2025-11-18T16:01:06.326976","MEAN_MOTION":15.0253141,"ECCENTRICITY":0.00011738,"INCLINATION":43.0062,"RA_OF_ASC_NODE":55.0453,"ARG_OF_PERICENTER":273.7759,"MEAN_ANOMALY":86.2949,"EPHEMERIS_TYPE":0,"CLASSIFICATION_TYPE":"U","NORAD_CAT_ID":57741,"ELEMENT_SET_NO":999,"REV_AT_EPOCH":12322,"BSTAR":-7.0552889e-5,"MEAN_MOTION_DOT":-1.156e-5,"MEAN_MOTION_DDOT":0},{"OBJECT_NAME":"STARLINK-30308","OBJECT_ID":"2023-131L","EPOCH":"2025-11-18T16:20:16.820736","MEAN_MOTION":15.02533291,"ECCENTRICITY":0.00017392,"INCLINATION":43.0076,"RA_OF_ASC_NODE":55.1443,"ARG_OF_PERICENTER":264.8544,"MEAN_ANOMALY":95.21,"EPHEMERIS_TYPE":0,"CLASSIFICATION_TYPE":"U","NORAD_CAT_ID":57742,"ELEMENT_SET_NO":999,"REV_AT_EPOCH":12323,"BSTAR":2.7639696e-5,"MEAN_MOTION_DOT":1.7e-6,"MEAN_MOTION_DDOT":0},{"OBJECT_NAME":"STARLINK-30361","OBJECT_ID":"2023-131M","EPOCH":"2025-11-18T14:20:35.096352","MEAN_MOTION":15.02528664,"ECCENTRICITY":0.00015098,"INCLINATION":43.0024,"RA_OF_ASC_NODE":55.3803,"ARG_OF_PERICENTER":271.4161,"MEAN_ANOMALY":88.6508,"EPHEMERIS_TYPE":0,"CLASSIFICATION_TYPE":"U","NORAD_CAT_ID":57743,"ELEMENT_SET_NO":999,"REV_AT_EPOCH":12321,"BSTAR":-8.9913154e-5,"MEAN_MOTION_DOT":-1.418e-5,"MEAN_MOTION_DDOT":0},{"OBJECT_NAME":"STARLINK-30363","OBJECT_ID":"2023-131N","EPOCH":"2025-11-18T13:17:15.011808","MEAN_MOTION":15.02529558,"ECCENTRICITY":0.00012155,"INCLINATION":43.0059,"RA_OF_ASC_NODE":43.1369,"ARG_OF_PERICENTER":283.1259,"MEAN_ANOMALY":76.9448,"EPHEMERIS_TYPE":0,"CLASSIFICATION_TYPE":"U","NORAD_CAT_ID":57744,"ELEMENT_SET_NO":999,"REV_AT_EPOCH":12335,"BSTAR":7.9045671e-5,"MEAN_MOTION_DOT":8.64e-6,"MEAN_MOTION_DDOT":0},{"OBJECT_NAME":"STARLINK-30362","OBJECT_ID":"2023-131P","EPOCH":"2025-11-18T15:51:30.593664","MEAN_MOTION":15.02531297,"ECCENTRICITY":0.00016454,"INCLINATION":43.0016,"RA_OF_ASC_NODE":54.9973,"ARG_OF_PERICENTER":263.3139,"MEAN_ANOMALY":96.7516,"EPHEMERIS_TYPE":0,"CLASSIFICATION_TYPE":"U","NORAD_CAT_ID":57745,"ELEMENT_SET_NO":999,"REV_AT_EPOCH":12322,"BSTAR":3.633958e-6,"MEAN_MOTION_DOT":-1.55e-6,"MEAN_MOTION_DDOT":0},{"OBJECT_NAME":"STARLINK-30350","OBJECT_ID":"2023-131Q","EPOCH":"2025-11-18T22:57:34.266240","MEAN_MOTION":15.02534529,"ECCENTRICITY":0.00018306,"INCLINATION":43.0041,"RA_OF_ASC_NODE":53.7574,"ARG_OF_PERICENTER":292.8635,"MEAN_ANOMALY":67.2014,"EPHEMERIS_TYPE":0,"CLASSIFICATION_TYPE":"U","NORAD_CAT_ID":57746,"ELEMENT_SET_NO":999,"REV_AT_EPOCH":12326,"BSTAR":-1.626133e-6,"MEAN_MOTION_DOT":-2.26e-6,"MEAN_MOTION_DDOT":0}]
